STARLINK-4597           
1 53640U 22104BE  26004.66740059  .00000720  00000+0  63334-4 0  9997
2 53640  53.2174 151.2797 0001656  59.0711 301.0444 15.08848862186567
STARLINK-4588           
1 53641U 22104BF  26004.67846188  .00000309  00000+0  37519-4 0  9998
2 53641  53.2185 151.3408 0001236  86.7597 273.3537 15.08835853186563
STARLINK-4622           
1 53648U 22105A   26004.65869782  .00000420  00000+0  37242-4 0  9996
2 53648  97.6016 247.5208 0002891  20.7705 339.3637 15.01260556183632
STARLINK-4386           
1 53649U 22105B   26004.84452549 -.00001857  00000+0 -12450-3 0  9997
2 53649  97.6014 248.3413 0002388  88.4561 271.6939 15.05656778183698
STARLINK-4380           
1 53650U 22105C   26004.65499626  .00000561  00000+0  48204-4 0  9991
2 53650  97.6023 247.5154 0001626  81.4504 278.6905 15.01259900183622
STARLINK-4388           
1 53651U 22105D   26004.66175739  .00000419  00000+0  33287-4 0  9996
2 53651  97.6032 248.1149 0002344  93.5497 266.5998 15.05646549183662
STARLINK-4374           
1 53652U 22105E   26004.65129482 -.00000694  00000+0 -49493-4 0  9993
2 53652  97.6022 247.5116 0001795  81.5078 278.6350 15.01261546183628
STARLINK-4390           
1 53653U 22105F   26004.66981472  .00000565  00000+0  48563-4 0  9992
2 53653  97.6018 247.4975 0004045  58.9179 301.2442 15.01260616183629
STARLINK-4420           
1 53654U 22105G   26004.67283284  .00000712  00000+0  53539-4 0  9993
2 53654  97.6029 248.0847 0002086  91.5822 268.5643 15.05645557183665
STARLINK-4470           
1 53655U 22105H   26004.61467976  .00000678  00000+0  51174-4 0  9994
2 53655  97.6012 248.0158 0002197  93.7119 266.4359 15.05645058183655
STARLINK-4466           
1 53656U 22105J   26004.64020544 -.00003167  00000+0 -24228-3 0  9991
2 53656  97.6039 247.5034 0001618 117.5319 242.6070 15.01242363183627
STARLINK-4469           
1 53657U 22105K   26004.67984270  .00002393  00000+0  14369-4 0  9994
2 53657  97.6417 263.5326 0001576 122.0729 238.0690 15.79063425184598
STARLINK-4452           
1 53658U 22105L   26004.63130280 -.00001798  00000+0 -12042-3 0  9990
2 53658  97.6026 248.1290 0003996  81.6125 278.5554 15.05652757183668
STARLINK-4463           
1 53659U 22105M   26004.83335648  .01274019  00000+0  15258-1 0  9995
2 53659  97.6019 249.6180 0001351  89.5820  25.9355 15.58324120  5830
STARLINK-4473           
1 53660U 22105N   26004.63647935  .00000177  00000+0  18284-4 0  9996
2 53660  97.6021 247.4955 0000070 116.0820 244.0411 15.01258741183628
STARLINK-4472           
1 53661U 22105P   26004.63859421  .00003697  00000+0  29224-3 0  9997
2 53661  97.6030 247.5013 0000986  81.2286 278.9050 15.01257742183625
STARLINK-4357           
1 53662U 22105Q   26004.67005888  .00000604  00000+0  46046-4 0  9999
2 53662  97.6035 248.0512 0002097  89.2516 270.8951 15.05646713183669
STARLINK-4457           
1 53663U 22105R   26004.62851601  .00003657  00000+0  25738-3 0  9992
2 53663  97.6017 248.1233 0001798  78.9252 281.2177 15.05665986183669
STARLINK-4471           
1 53664U 22105S   26004.65898690 -.00000194  00000+0 -92543-5 0  9990
2 53664  97.6036 248.0675 0002278  88.9268 271.2219 15.05644915183667
STARLINK-4334           
1 53665U 22105T   26004.62576355  .00001641  00000+0  11793-3 0  9991
2 53665  97.6021 248.1204 0002233  76.9272 283.2203 15.05646451183667
STARLINK-4406           
1 53667U 22105V   26004.67560999  .00000526  00000+0  40646-4 0  9996
2 53667  97.6024 248.2069 0002270  87.5716 272.5771 15.05646320183671
STARLINK-4458           
1 53668U 22105W   26004.64796541 -.00005880  00000+0 -40427-3 0  9994
2 53668  97.6015 248.0459 0001936  53.4628 306.6777 15.05590911183663
STARLINK-4464           
1 53669U 22105X   26004.63277578  .00000953  00000+0  78712-4 0  9991
2 53669  97.6021 247.4831 0000069 244.2777 115.8440 15.01258891183626
STARLINK-4459           
1 53670U 22105Y   26004.81682909  .00000816  00000+0  60740-4 0  9991
2 53670  97.6025 248.3019 0002178  83.6479 276.4996 15.05649635183698
STARLINK-4440           
1 53671U 22105Z   26004.62376800 -.00000348  00000+0 -22578-4 0  9990
2 53671  97.6042 247.4952 0001847  84.8316 275.3119 15.01251876183629
STARLINK-4428           
1 53672U 22105AA  26004.67721369  .00000190  00000+0  19356-4 0  9993
2 53672  97.6019 247.5726 0003846  50.5857 309.5707 15.01262656183637
STARLINK-4456           
1 53673U 22105AB  26004.65345375 -.00000073  00000+0 -82956-6 0  9991
2 53673  97.6025 248.1148 0002323  89.2340 270.9153 15.05642144183662
STARLINK-4620           
1 53674U 22105AC  26004.61796780  .00002885  00000+0  22895-3 0  9992
2 53674  97.6033 247.4911 0002047  85.9680 274.1779 15.01272276183622
STARLINK-4617           
1 53675U 22105AD  26004.66453267  .00000498  00000+0  38723-4 0  9994
2 53675  97.6034 248.1810 0002219  88.9659 271.1822 15.05645633183676
STARLINK-4621           
1 53676U 22105AE  26004.61426722  .00001109  00000+0  90844-4 0  9998
2 53676  97.6023 247.4882 0003068  75.7276 284.4288 15.01261911183625
STARLINK-4579           
1 53677U 22105AF  26004.62299244  .00000924  00000+0  68220-4 0  9994
2 53677  97.6017 248.0902 0002124  78.3627 281.7838 15.05648382183660
STARLINK-4632           
1 53679U 22105AH  26004.65622678 -.00000118  00000+0 -39643-5 0  9995
2 53679  97.6030 248.1899 0002337  87.9893 272.1601 15.05645766183676
STARLINK-4630           
1 53680U 22105AJ  26004.62022183  .00001361  00000+0  98502-4 0  9996
2 53680  97.6013 248.0677 0002171  91.7839 268.3637 15.05646140183663
STARLINK-4424           
1 53681U 22105AK  26004.67351274  .00000509  00000+0  44183-4 0  9997
2 53681  97.6018 247.5615 0004284  51.1476 309.0130 15.01260447183635
STARLINK-4438           
1 53682U 22105AL  26004.63960377  .00000048  00000+0  75397-5 0  9994
2 53682  97.6015 248.0343 0002140  83.1251 277.0219 15.05645302183668
STARLINK-4625           
1 53683U 22105AM  26004.61264630  .00003097  00000+0  24543-3 0  9994
2 53683  97.6021 247.4847 0003256  70.9549 289.2028 15.01276843183626
STARLINK-4624           
1 53684U 22105AN  26004.62906719  .00000664  00000+0  56216-4 0  9997
2 53684  97.6031 247.5554 0000815 189.8738 170.2470 15.01260316183608
STARLINK-4626           
1 53685U 22105AP  26004.67190467 -.00003562  00000+0 -27277-3 0  9994
2 53685  97.6014 247.5498 0003921  64.3843 295.7786 15.01275890183631
STARLINK-4467           
1 53686U 22105AQ  26004.64390421 -.00019865  00000+0 -15486-2 0  9995
2 53686  97.6001 247.5634 0002313 101.2642 258.8842 15.01206243183631
STARLINK-4569           
1 53687U 22105AR  26004.63683463 -.00001470  00000+0 -97631-4 0  9993
2 53687  97.6019 248.0368 0002857  80.9974 279.1576 15.05657863183660
STARLINK-4571           
1 53688U 22105AS  26004.66610947  .00000487  00000+0  42453-4 0  9991
2 53688  97.6014 247.5386 0005034  49.5187 310.6476 15.01260213183639
STARLINK-4570           
1 53690U 22105AU  26004.62168394  .00002830  00000+0  22468-3 0  9991
2 53690  97.6029 247.4364 0002737  87.9297 272.2241 15.01269927183621
STARLINK-4560           
1 53691U 22105AV  26004.67836837  .00001241  00000+0  90194-4 0  9998
2 53691  97.5981 248.1181 0003146  84.0034 276.1551 15.05645335183672
STARLINK-4572           
1 53692U 22105AW  26004.64492552  .00017345  00000+0  87376-3 0  9997
2 53692  97.6269 251.0358 0002448  78.7399 281.4109 15.17243194183836
STARLINK-4566           
1 53693U 22105AX  26004.63407464  .00001805  00000+0  12930-3 0  9993
2 53693  97.6019 248.1673 0001602  88.9272 271.2138 15.05643986183672
YAOGAN-33 02            
1 53698U 22106A   26004.87048791  .00000338  00000+0  82329-4 0  9999
2 53698  98.1835  15.1714 0001153 348.9282  11.1891 14.58648724177917
STARLINK-4725           
1 53700U 22107A   26004.73179534  .00002849  00000+0  19693-3 0  9991
2 53700  53.2172 170.8650 0001234  85.0601 275.0532 15.08853078185209
STARLINK-4711           
1 53701U 22107B   26004.72811008 -.00000833  00000+0 -34272-4 0  9994
2 53701  53.2177 170.8441 0001310  86.3873 273.7269 15.08834778185201
STARLINK-4724           
1 53702U 22107C   26004.68720912 -.00000473  00000+0 -11662-4 0  9991
2 53702  53.2174 156.3381 0001182  88.3719 271.7408 15.08833979185439
STARLINK-4731           
1 53703U 22107D   26004.74284911 -.00000024  00000+0  16600-4 0  9991
2 53703  53.2173 170.9342 0001365  91.7372 268.3777 15.08833648185203
STARLINK-4714           
1 53704U 22107E   26004.72451022  .00000340  00000+0  39469-4 0  9997
2 53704  53.2179 171.5276 0001334  87.0445 273.0700 15.08836821185034
STARLINK-4717           
1 53705U 22107F   26004.72082583  .00000019  00000+0  19290-4 0  9993
2 53705  53.2183 171.5035 0001332  76.3460 283.7680 15.08841005185191
STARLINK-4716           
1 53706U 22107G   26004.77232884  .00001392  00000+0  10552-3 0  9996
2 53706  53.2169 171.1108 0001219  86.6463 273.4669 15.08844314185205
STARLINK-4667           
1 53707U 22107H   26004.69826112 -.00000100  00000+0  11791-4 0  9995
2 53707  53.2177 156.4033 0001283  88.1792 271.9347 15.08835212185406
STARLINK-4694           
1 53708U 22107J   26004.68352090  .00000050  00000+0  21242-4 0  9999
2 53708  53.2180 156.3192 0001306  83.9740 276.1401 15.08839228185407
STARLINK-4685           
1 53709U 22107K   26004.73685510  .00002576  00000+0  17981-3 0  9991
2 53709  53.2163 175.9100 0001119  93.9538 266.1582 15.08850011184820
STARLINK-4627           
1 53711U 22107M   26004.74791627  .00002258  00000+0  15992-3 0  9999
2 53711  53.2172 175.9709 0001349  89.4243 270.6903 15.08840311184825
STARLINK-4683           
1 53712U 22107N   26004.78837227 -.00001137  00000+0 -53371-4 0  9992
2 53712  53.2176 175.5315 0001368  81.9992 278.1155 15.08823619184855
STARLINK-4686           
1 53715U 22107R   26004.80816594  .00000345  00000+0  39771-4 0  9998
2 53715  53.2173 180.6130 0001303  86.7192 273.3950 15.08839194184777
